[{"OBJECT_NAME":"OBJECT A","OBJECT_ID":"2023-081A","EPOCH":"2026-03-09T22:51:43.391520","MEAN_MOTION":15.22207712,"ECCENTRICITY":0.0001697,"INCLINATION":97.3786,"RA_OF_ASC_NODE":140.8885,"ARG_OF_PERICENTER":111.1602,"MEAN_ANOMALY":248.9816,"EPHEMERIS_TYPE":0,"CLASSIFICATION_TYPE":"U","NORAD_CAT_ID":56846,"ELEMENT_SET_NO":999,"REV_AT_EPOCH":15291,"BSTAR":0.00017652669,"MEAN_MOTION_DOT":3.986e-5,"MEAN_MOTION_DDOT":0},{"OBJECT_NAME":"OTTER PUP 2","OBJECT_ID":"2025-135K","EPOCH":"2026-03-09T21:21:10.428192","MEAN_MOTION":15.22839777,"ECCENTRICITY":0.00032963,"INCLINATION":97.4591,"RA_OF_ASC_NODE":184.9166,"ARG_OF_PERICENTER":133.797,"MEAN_ANOMALY":226.3539,"EPHEMERIS_TYPE":0,"CLASSIFICATION_TYPE":"U","NORAD_CAT_ID":64537,"ELEMENT_SET_NO":999,"REV_AT_EPOCH":3976,"BSTAR":0.0012925798,"MEAN_MOTION_DOT":0.00030282,"MEAN_MOTION_DDOT":0}]
